CCSDS_OMM_VERS = 2.0
CREATION_DATE  = 
ORIGINATOR     = 

OBJECT_NAME    = SL-16 R/B
OBJECT_ID      = 1993-016B
CENTER_NAME    = EARTH
REF_FRAME      = TEME
TIME_SYSTEM    = UTC
MEAN_ELEMENT_THEORY = SGP/SGP4

EPOCH          = 2025-12-30T10:41:16.174176
MEAN_MOTION    = 14.15295271
ECCENTRICITY   = .00080524
INCLINATION    = 71.0087
RA_OF_ASC_NODE = 0.6155
ARG_OF_PERICENTER = 61.9475
MEAN_ANOMALY   = 298.2461

EPHEMERIS_TYPE = 0
CLASSIFICATION_TYPE = U
NORAD_CAT_ID   = 22566
ELEMENT_SET_NO = 999
REV_AT_EPOCH   = 69237
BSTAR          = .69173359E-4
MEAN_MOTION_DOT = .87E-6
MEAN_MOTION_DDOT = 0

CCSDS_OMM_VERS = 2.0
CREATION_DATE  = 
ORIGINATOR     = 

OBJECT_NAME    = COSMOS 2242
OBJECT_ID      = 1993-024A
CENTER_NAME    = EARTH
REF_FRAME      = TEME
TIME_SYSTEM    = UTC
MEAN_ELEMENT_THEORY = SGP/SGP4

EPOCH          = 2025-12-30T10:13:21.537408
MEAN_MOTION    = 14.96189752
ECCENTRICITY   = .00164257
INCLINATION    = 82.5192
RA_OF_ASC_NODE = 332.9389
ARG_OF_PERICENTER = 172.0697
MEAN_ANOMALY   = 188.0788

EPHEMERIS_TYPE = 0
CLASSIFICATION_TYPE = U
NORAD_CAT_ID   = 22626
ELEMENT_SET_NO = 999
REV_AT_EPOCH   = 77003
BSTAR          = .30219103E-3
MEAN_MOTION_DOT = .3439E-4
MEAN_MOTION_DDOT = 0

CCSDS_OMM_VERS = 2.0
CREATION_DATE  = 
ORIGINATOR     = 

OBJECT_NAME    = SL-16 R/B
OBJECT_ID      = 1993-059B
CENTER_NAME    = EARTH
REF_FRAME      = TEME
TIME_SYSTEM    = UTC
MEAN_ELEMENT_THEORY = SGP/SGP4

EPOCH          = 2025-12-30T19:13:35.205888
MEAN_MOTION    = 14.17219035
ECCENTRICITY   = .0018943
INCLINATION    = 70.9898
RA_OF_ASC_NODE = 156.3995
ARG_OF_PERICENTER = 310.1817
MEAN_ANOMALY   = 49.7647

EPHEMERIS_TYPE = 0
CLASSIFICATION_TYPE = U
NORAD_CAT_ID   = 22803
ELEMENT_SET_NO = 999
REV_AT_EPOCH   = 66977
BSTAR          = .73023E-4
MEAN_MOTION_DOT = .1E-5
MEAN_MOTION_DDOT = 0

CCSDS_OMM_VERS = 2.0
CREATION_DATE  = 
ORIGINATOR     = 

OBJECT_NAME    = ARIANE 40 R/B
OBJECT_ID      = 1993-061H
CENTER_NAME    = EARTH
REF_FRAME      = TEME
TIME_SYSTEM    = UTC
MEAN_ELEMENT_THEORY = SGP/SGP4

EPOCH          = 2025-12-30T18:35:50.644608
MEAN_MOTION    = 14.32814939
ECCENTRICITY   = .0011686
INCLINATION    = 98.5051
RA_OF_ASC_NODE = 69.9746
ARG_OF_PERICENTER = 125.6373
MEAN_ANOMALY   = 234.5901

EPHEMERIS_TYPE = 0
CLASSIFICATION_TYPE = U
NORAD_CAT_ID   = 22830
ELEMENT_SET_NO = 999
REV_AT_EPOCH   = 68423
BSTAR          = .18856E-3
MEAN_MOTION_DOT = .471E-5
MEAN_MOTION_DDOT = 0

CCSDS_OMM_VERS = 2.0
CREATION_DATE  = 
ORIGINATOR     = 

OBJECT_NAME    = COSMOS 2278
OBJECT_ID      = 1994-023A
CENTER_NAME    = EARTH
REF_FRAME      = TEME
TIME_SYSTEM    = UTC
MEAN_ELEMENT_THEORY = SGP/SGP4

EPOCH          = 2025-12-30T13:41:58.405632
MEAN_MOTION    = 14.14351542
ECCENTRICITY   = .0007587
INCLINATION    = 71.0539
RA_OF_ASC_NODE = 319.7041
ARG_OF_PERICENTER = 147.1947
MEAN_ANOMALY   = 212.9648

EPHEMERIS_TYPE = 0
CLASSIFICATION_TYPE = U
NORAD_CAT_ID   = 23087
ELEMENT_SET_NO = 999
REV_AT_EPOCH   = 63503
BSTAR          = .20898E-3
MEAN_MOTION_DOT = .353E-5
MEAN_MOTION_DDOT = 0

CCSDS_OMM_VERS = 2.0
CREATION_DATE  = 
ORIGINATOR     = 

OBJECT_NAME    = SL-16 R/B
OBJECT_ID      = 1994-023B
CENTER_NAME    = EARTH
REF_FRAME      = TEME
TIME_SYSTEM    = UTC
MEAN_ELEMENT_THEORY = SGP/SGP4

EPOCH          = 2025-12-30T18:57:42.683040
MEAN_MOTION    = 14.14998548
ECCENTRICITY   = .0002359
INCLINATION    = 70.9971
RA_OF_ASC_NODE = 215.5799
ARG_OF_PERICENTER = 358.5507
MEAN_ANOMALY   = 1.5608

EPHEMERIS_TYPE = 0
CLASSIFICATION_TYPE = U
NORAD_CAT_ID   = 23088
ELEMENT_SET_NO = 999
REV_AT_EPOCH   = 63634
BSTAR          = .29915E-4
MEAN_MOTION_DOT = .1E-6
MEAN_MOTION_DDOT = 0

CCSDS_OMM_VERS = 2.0
CREATION_DATE  = 
ORIGINATOR     = 

OBJECT_NAME    = SL-16 R/B
OBJECT_ID      = 1994-074B
CENTER_NAME    = EARTH
REF_FRAME      = TEME
TIME_SYSTEM    = UTC
MEAN_ELEMENT_THEORY = SGP/SGP4

EPOCH          = 2025-12-30T16:15:13.667328
MEAN_MOTION    = 14.79312611
ECCENTRICITY   = .000806
INCLINATION    = 97.7186
RA_OF_ASC_NODE = 33.2672
ARG_OF_PERICENTER = 87.1367
MEAN_ANOMALY   = 26.7453

EPHEMERIS_TYPE = 0
CLASSIFICATION_TYPE = U
NORAD_CAT_ID   = 23343
ELEMENT_SET_NO = 999
REV_AT_EPOCH   = 67704
BSTAR          = .12089E-3
MEAN_MOTION_DOT = .851E-5
MEAN_MOTION_DDOT = 0

CCSDS_OMM_VERS = 2.0
CREATION_DATE  = 
ORIGINATOR     = 

OBJECT_NAME    = SL-16 R/B
OBJECT_ID      = 1994-077B
CENTER_NAME    = EARTH
REF_FRAME      = TEME
TIME_SYSTEM    = UTC
MEAN_ELEMENT_THEORY = SGP/SGP4

EPOCH          = 2025-12-30T19:09:55.862208
MEAN_MOTION    = 14.15550572
ECCENTRICITY   = .0005033
INCLINATION    = 70.9826
RA_OF_ASC_NODE = 137.4231
ARG_OF_PERICENTER = 269.7964
MEAN_ANOMALY   = 90.2582

EPHEMERIS_TYPE = 0
CLASSIFICATION_TYPE = U
NORAD_CAT_ID   = 23405
ELEMENT_SET_NO = 999
REV_AT_EPOCH   = 60648
BSTAR          = -.87668E-4
MEAN_MOTION_DOT = -.219E-5
MEAN_MOTION_DDOT = 0

CCSDS_OMM_VERS = 2.0
CREATION_DATE  = 
ORIGINATOR     = 

OBJECT_NAME    = ARIANE 40+ R/B
OBJECT_ID      = 1995-021B
CENTER_NAME    = EARTH
REF_FRAME      = TEME
TIME_SYSTEM    = UTC
MEAN_ELEMENT_THEORY = SGP/SGP4

EPOCH          = 2025-12-30T19:35:07.924416
MEAN_MOTION    = 14.39710943
ECCENTRICITY   = .0006521
INCLINATION    = 98.4628
RA_OF_ASC_NODE = 72.1850
ARG_OF_PERICENTER = 357.9547
MEAN_ANOMALY   = 113.6885

EPHEMERIS_TYPE = 0
CLASSIFICATION_TYPE = U
NORAD_CAT_ID   = 23561
ELEMENT_SET_NO = 999
REV_AT_EPOCH   = 60933
BSTAR          = .18673E-3
MEAN_MOTION_DOT = .541E-5
MEAN_MOTION_DDOT = 0

CCSDS_OMM_VERS = 2.0
CREATION_DATE  = 
ORIGINATOR     = 

OBJECT_NAME    = SL-16 R/B
OBJECT_ID      = 1995-058B
CENTER_NAME    = EARTH
REF_FRAME      = TEME
TIME_SYSTEM    = UTC
MEAN_ELEMENT_THEORY = SGP/SGP4

EPOCH          = 2025-12-30T07:22:46.824096
MEAN_MOTION    = 14.15482003
ECCENTRICITY   = .00143977
INCLINATION    = 71.0220
RA_OF_ASC_NODE = 325.9202
ARG_OF_PERICENTER = 231.6648
MEAN_ANOMALY   = 128.3182

EPHEMERIS_TYPE = 0
CLASSIFICATION_TYPE = U
NORAD_CAT_ID   = 23705
ELEMENT_SET_NO = 999
REV_AT_EPOCH   = 55803
BSTAR          = .97106652E-4
MEAN_MOTION_DOT = .142E-5
MEAN_MOTION_DDOT = 0

CCSDS_OMM_VERS = 2.0
CREATION_DATE  = 
ORIGINATOR     = 

OBJECT_NAME    = SL-16 R/B
OBJECT_ID      = 1996-051B
CENTER_NAME    = EARTH
REF_FRAME      = TEME
TIME_SYSTEM    = UTC
MEAN_ELEMENT_THEORY = SGP/SGP4

EPOCH          = 2025-12-30T19:57:25.725600
MEAN_MOTION    = 14.12398570
ECCENTRICITY   = .0019419
INCLINATION    = 70.7598
RA_OF_ASC_NODE = 320.9883
ARG_OF_PERICENTER = 239.1439
MEAN_ANOMALY   = 120.7771

EPHEMERIS_TYPE = 0
CLASSIFICATION_TYPE = U
NORAD_CAT_ID   = 24298
ELEMENT_SET_NO = 999
REV_AT_EPOCH   = 51192
BSTAR          = .47923E-4
MEAN_MOTION_DOT = .39E-6
MEAN_MOTION_DDOT = 0

CCSDS_OMM_VERS = 2.0
CREATION_DATE  = 
ORIGINATOR     = 

OBJECT_NAME    = ORBVIEW 2 (SEASTAR)
OBJECT_ID      = 1997-037A
CENTER_NAME    = EARTH
REF_FRAME      = TEME
TIME_SYSTEM    = UTC
MEAN_ELEMENT_THEORY = SGP/SGP4

EPOCH          = 2025-12-30T09:52:24.112416
MEAN_MOTION    = 14.35431722
ECCENTRICITY   = .00012445
INCLINATION    = 98.8468
RA_OF_ASC_NODE = 161.9320
ARG_OF_PERICENTER = 259.3726
MEAN_ANOMALY   = 100.7318

EPHEMERIS_TYPE = 0
CLASSIFICATION_TYPE = U
NORAD_CAT_ID   = 24883
ELEMENT_SET_NO = 999
REV_AT_EPOCH   = 49853
BSTAR          = .21530588E-3
MEAN_MOTION_DOT = .572E-5
MEAN_MOTION_DDOT = 0

